{
  "type": "FeatureCollection",
  "features": [
    {
      "type": "Feature",
      "properties": {
        "norad_id": 34350,
        "name": "IRIDIUM 33 DEB",
        "group": "iridium-33-debris",
        "lat": 51.83178914843652,
        "lon": 177.63417283174095,
        "alt_km": 719.7771022874285,
        "timestamp": "2025-12-13T20:38:51.391569+00:00",
        "meta_object_name": "IRIDIUM 33 DEB",
        "meta_object_id": "1997-051ES",
        "meta_epoch": "2025-12-13T02:04:45.161184",
        "meta_mean_motion": 14.45387979,
        "meta_eccentricity": 0.00228554,
        "meta_inclination": 86.3275,
        "meta_ra_of_asc_node": 2.6567,
        "meta_arg_of_pericenter": 134.1045,
        "meta_mean_anomaly": 290.6461,
        "meta_ephemeris_type": 0,
        "meta_classification_type": "U",
        "meta_norad_cat_id": 34350,
        "meta_element_set_no": 999,
        "meta_rev_at_epoch": 88298,
        "meta_bstar": 0.00046669756,
        "meta_mean_motion_dot": 1.666e-05,
        "meta_mean_motion_ddot": 0,
        "tle_line1": "1 34350U 97051ES  25347.08663381  .00001666  00000+0  46670-3 0  9997",
        "tle_line2": "2 34350  86.3275   2.6567 0022855 134.1045 290.6461 14.45387979882984"
      },
      "geometry": {
        "type": "Point",
        "coordinates": [
          177.63417283174095,
          51.83178914843652
        ]
      }
    },
    {
      "type": "Feature",
      "properties": {
        "norad_id": 34366,
        "name": "IRIDIUM 33 DEB",
        "group": "iridium-33-debris",
        "lat": 48.92858039543123,
        "lon": -135.3516888138394,
        "alt_km": 692.0620929563211,
        "timestamp": "2025-12-13T20:38:51.391582+00:00",
        "meta_object_name": "IRIDIUM 33 DEB",
        "meta_object_id": "1997-051FJ",
        "meta_epoch": "2025-12-13T05:27:47.143872",
        "meta_mean_motion": 14.54068911,
        "meta_eccentricity": 0.00226142,
        "meta_inclination": 86.3698,
        "meta_ra_of_asc_node": 49.101,
        "meta_arg_of_pericenter": 138.0873,
        "meta_mean_anomaly": 283.0228,
        "meta_ephemeris_type": 0,
        "meta_classification_type": "U",
        "meta_norad_cat_id": 34366,
        "meta_element_set_no": 999,
        "meta_rev_at_epoch": 88189,
        "meta_bstar": 0.0017655773,
        "meta_mean_motion_dot": 7.499e-05,
        "meta_mean_motion_ddot": 0,
        "tle_line1": "1 34366U 97051FJ  25347.22762898  .00007499  00000+0  17656-2 0  9994",
        "tle_line2": "2 34366  86.3698  49.1010 0022614 138.0873 283.0228 14.54068911881892"
      },
      "geometry": {
        "type": "Point",
        "coordinates": [
          -135.3516888138394,
          48.92858039543123
        ]
      }
    },
    {
      "type": "Feature",
      "properties": {
        "norad_id": 34375,
        "name": "IRIDIUM 33 DEB",
        "group": "iridium-33-debris",
        "lat": -80.80634857309512,
        "lon": 24.917297857819754,
        "alt_km": 894.9065102211644,
        "timestamp": "2025-12-13T20:38:51.391594+00:00",
        "meta_object_name": "IRIDIUM 33 DEB",
        "meta_object_id": "1997-051FT",
        "meta_epoch": "2025-12-12T23:49:03.895680",
        "meta_mean_motion": 14.17992706,
        "meta_eccentricity": 0.01033277,
        "meta_inclination": 86.4327,
        "meta_ra_of_asc_node": 182.597,
        "meta_arg_of_pericenter": 125.9322,
        "meta_mean_anomaly": 27.0467,
        "meta_ephemeris_type": 0,
        "meta_classification_type": "U",
        "meta_norad_cat_id": 34375,
        "meta_element_set_no": 999,
        "meta_rev_at_epoch": 86715,
        "meta_bstar": 0.00059451222,
        "meta_mean_motion_dot": 1.302e-05,
        "meta_mean_motion_ddot": 0,
        "tle_line1": "1 34375U 97051FT  25346.99240620  .00001302  00000+0  59451-3 0  9998",
        "tle_line2": "2 34375  86.4327 182.5970 0103327 125.9322  27.0467 14.17992706867155"
      },
      "geometry": {
        "type": "Point",
        "coordinates": [
          24.917297857819754,
          -80.80634857309512
        ]
      }
    },
    {
      "type": "Feature",
      "properties": {
        "norad_id": 34376,
        "name": "IRIDIUM 33 DEB",
        "group": "iridium-33-debris",
        "lat": 85.59042222303313,
        "lon": 128.95988465510078,
        "alt_km": 670.8566985949265,
        "timestamp": "2025-12-13T20:38:51.391605+00:00",
        "meta_object_name": "IRIDIUM 33 DEB",
        "meta_object_id": "1997-051FU",
        "meta_epoch": "2025-12-13T05:26:52.439712",
        "meta_mean_motion": 14.62582751,
        "meta_eccentricity": 0.00272182,
        "meta_inclination": 86.2989,
        "meta_ra_of_asc_node": 6.321,
        "meta_arg_of_pericenter": 165.0092,
        "meta_mean_anomaly": 195.1933,
        "meta_ephemeris_type": 0,
        "meta_classification_type": "U",
        "meta_norad_cat_id": 34376,
        "meta_element_set_no": 999,
        "meta_rev_at_epoch": 88014,
        "meta_bstar": 0.0024180552,
        "meta_mean_motion_dot": 0.00012374,
        "meta_mean_motion_ddot": 0,
        "tle_line1": "1 34376U 97051FU  25347.22699583  .00012374  00000+0  24181-2 0  9994",
        "tle_line2": "2 34376  86.2989   6.3210 0027218 165.0092 195.1933 14.62582751880145"
      },
      "geometry": {
        "type": "Point",
        "coordinates": [
          128.95988465510078,
          85.59042222303313
        ]
      }
    },
    {
      "type": "Feature",
      "properties": {
        "norad_id": 34486,
        "name": "IRIDIUM 33 DEB",
        "group": "iridium-33-debris",
        "lat": 82.25988072634073,
        "lon": 39.150531520129164,
        "alt_km": 563.7607008742052,
        "timestamp": "2025-12-13T20:38:51.391616+00:00",
        "meta_object_name": "IRIDIUM 33 DEB",
        "meta_object_id": "1997-051GB",
        "meta_epoch": "2025-12-13T02:53:20.546016",
        "meta_mean_motion": 14.95831821,
        "meta_eccentricity": 0.00136534,
        "meta_inclination": 86.3941,
        "meta_ra_of_asc_node": 11.8488,
        "meta_arg_of_pericenter": 112.3422,
        "meta_mean_anomaly": 308.9128,
        "meta_ephemeris_type": 0,
        "meta_classification_type": "U",
        "meta_norad_cat_id": 34486,
        "meta_element_set_no": 999,
        "meta_rev_at_epoch": 88992,
        "meta_bstar": 0.0029300788,
        "meta_mean_motion_dot": 0.0003291,
        "meta_mean_motion_ddot": 0,
        "tle_line1": "1 34486U 97051GB  25347.12037669  .00032910  00000+0  29301-2 0  9993",
        "tle_line2": "2 34486  86.3941  11.8488 0013653 112.3422 308.9128 14.95831821889920"
      },
      "geometry": {
        "type": "Point",
        "coordinates": [
          39.150531520129164,
          82.25988072634073
        ]
      }
    },
    {
      "type": "Feature",
      "properties": {
        "norad_id": 34487,
        "name": "IRIDIUM 33 DEB",
        "group": "iridium-33-debris",
        "lat": -66.71216706302855,
        "lon": -159.5609056053074,
        "alt_km": 767.6214592525721,
        "timestamp": "2025-12-13T20:38:51.391626+00:00",
        "meta_object_name": "IRIDIUM 33 DEB",
        "meta_object_id": "1997-051GC",
        "meta_epoch": "2025-12-13T01:29:47.810688",
        "meta_mean_motion": 14.43216844,
        "meta_eccentricity": 0.00327796,
        "meta_inclination": 86.3434,
        "meta_ra_of_asc_node": 12.2383,
        "meta_arg_of_pericenter": 127.3536,
        "meta_mean_anomaly": 296.0452,
        "meta_ephemeris_type": 0,
        "meta_classification_type": "U",
        "meta_norad_cat_id": 34487,
        "meta_element_set_no": 999,
        "meta_rev_at_epoch": 88253,
        "meta_bstar": 0.00027272149,
        "meta_mean_motion_dot": 9.43e-06,
        "meta_mean_motion_ddot": 0,
        "tle_line1": "1 34487U 97051GC  25347.06235892  .00000943  00000+0  27272-3 0  9992",
        "tle_line2": "2 34487  86.3434  12.2383 0032779 127.3536 296.0452 14.43216844882531"
      },
      "geometry": {
        "type": "Point",
        "coordinates": [
          -159.5609056053074,
          -66.71216706302855
        ]
      }
    },
    {
      "type": "Feature",
      "properties": {
        "norad_id": 34488,
        "name": "IRIDIUM 33 DEB",
        "group": "iridium-33-debris",
        "lat": -22.64587156615084,
        "lon": 126.79578318012551,
        "alt_km": 490.3706365652597,
        "timestamp": "2025-12-13T20:38:51.391637+00:00",
        "meta_object_name": "IRIDIUM 33 DEB",
        "meta_object_id": "1997-051GD",
        "meta_epoch": "2025-12-12T09:13:17.706144",
        "meta_mean_motion": 15.29287842,
        "meta_eccentricity": 0.0013375,
        "meta_inclination": 86.3234,
        "meta_ra_of_asc_node": 305.9899,
        "meta_arg_of_pericenter": 52.1887,
        "meta_mean_anomaly": 308.0569,
        "meta_ephemeris_type": 0,
        "meta_classification_type": "U",
        "meta_norad_cat_id": 34488,
        "meta_element_set_no": 999,
        "meta_rev_at_epoch": 89234,
        "meta_bstar": 0.0061124826,
        "meta_mean_motion_dot": 0.00177845,
        "meta_mean_motion_ddot": 0,
        "tle_line1": "1 34488U 97051GD  25346.38423271  .00177845  00000+0  61125-2 0  9997",
        "tle_line2": "2 34488  86.3234 305.9899 0013375  52.1887 308.0569 15.29287842892343"
      },
      "geometry": {
        "type": "Point",
        "coordinates": [
          126.79578318012551,
          -22.64587156615084
        ]
      }
    }
  ]
}